{"type": "FeatureCollection", "features": [{"type": "Feature", "properties": {"name": "Real de la Feria de Abril"}, "geometry": {"type": "Polygon", "coordinates": [[[-5.9953261, 37.367957], [-5.9952634, 37.3709133], [-5.995263, 37.3709749], [-5.9952598, 37.3709744], [-5.9955167, 37.3714358], [-5.9956036, 37.371592], [-5.9963315, 37.3713936], [-6.002245, 37.3712715], [-6.0033539, 37.3713231], [-6.0042467, 37.3713019], [-6.0042789, 37.3711345], [-6.0044204, 37.3703982], [-6.0042839, 37.3703859], [-6.0042927, 37.3703441], [-6.0045341, 37.3692045], [-6.004563, 37.3690681], [-6.0038034, 37.3689466], [-6.0035794, 37.3688092], [-5.9981047, 37.3679538], [-5.997745, 37.3681558], [-5.9966593, 37.3681332], [-5.996377, 37.3679283], [-5.9958884, 37.367898], [-5.9958093, 37.3679694], [-5.9953261, 37.367957]]]}}]}